ONEWEB-0707             
1 61612U 24188U   26106.36926749  .00000597  00000+0  16750-2 0  9991
2 61612  87.8845  48.5549 0001745  61.3144 298.8159 13.10370690 75227
ONEWEB-0708             
1 61613U 24188V   26106.54022830 -.00000296  00000+0 -88534-3 0  9998
2 61613  87.8834  48.5452 0000980  88.0504 272.0736 13.10368358 75228
